{"type": "FeatureCollection", "features": [{"type": "Feature", "properties": {"norad_id": 25590, "name": "COSMOS 2361", "group": "musson", "lat": 69.92100897297114, "lon": -1.8036000709145315, "alt_km": 1003.2789538248499, "timestamp": "2025-12-20T11:30:28.646955+00:00", "meta": {"OBJECT_NAME": "COSMOS 2361", "OBJECT_ID": "1998-076A", "EPOCH": "2025-12-20T00:58:40.145952", "MEAN_MOTION": 13.73218347, "ECCENTRICITY": 0.0030158, "INCLINATION": 82.9341, "RA_OF_ASC_NODE": 338.6861, "ARG_OF_PERICENTER": 244.4261, "MEAN_ANOMALY": 179.0075, "EPHEMERIS_TYPE": 0, "CLASSIFICATION_TYPE": "U", "NORAD_CAT_ID": 25590, "ELEMENT_SET_NO": 999, "REV_AT_EPOCH": 35211, "BSTAR": 3.9175e-05, "MEAN_MOTION_DOT": 5.1e-07, "MEAN_MOTION_DDOT": 0}, "tle": {"line1": "1 25590U 98076A   25354.04074243  .00000051  00000+0  39175-4 0  9998", "line2": "2 25590  82.9341 338.6861 0030158 244.4261 179.0075 13.73218347352115"}}, "geometry": {"type": "Point", "coordinates": [-1.8036000709145315, 69.92100897297114]}}, {"type": "Feature", "properties": {"norad_id": 26818, "name": "COSMOS 2378", "group": "musson", "lat": 10.30242174131816, "lon": 172.6925129387023, "alt_km": 962.6790001290829, "timestamp": "2025-12-20T11:30:28.646976+00:00", "meta": {"OBJECT_NAME": "COSMOS 2378", "OBJECT_ID": "2001-023A", "EPOCH": "2025-12-20T02:15:33.782400", "MEAN_MOTION": 13.74142577, "ECCENTRICITY": 0.0032857, "INCLINATION": 82.927, "RA_OF_ASC_NODE": 354.2713, "ARG_OF_PERICENTER": 184.1929, "MEAN_ANOMALY": 240.1457, "EPHEMERIS_TYPE": 0, "CLASSIFICATION_TYPE": "U", "NORAD_CAT_ID": 26818, "ELEMENT_SET_NO": 999, "REV_AT_EPOCH": 23024, "BSTAR": 2.818e-05, "MEAN_MOTION_DOT": 4.2e-07, "MEAN_MOTION_DDOT": 0}, "tle": {"line1": "1 26818U 01023A   25354.09414100  .00000042  00000+0  28180-4 0  9997", "line2": "2 26818  82.9270 354.2713 0032857 184.1929 240.1457 13.74142577230244"}}, "geometry": {"type": "Point", "coordinates": [172.6925129387023, 10.30242174131816]}}, {"type": "Feature", "properties": {"norad_id": 27436, "name": "COSMOS 2389", "group": "musson", "lat": 44.228090921671665, "lon": -51.82716239131515, "alt_km": 942.6202629086192, "timestamp": "2025-12-20T11:30:28.646989+00:00", "meta": {"OBJECT_NAME": "COSMOS 2389", "OBJECT_ID": "2002-026A", "EPOCH": "2025-12-19T23:24:18.627840", "MEAN_MOTION": 13.75155401, "ECCENTRICITY": 0.0047366, "INCLINATION": 82.9508, "RA_OF_ASC_NODE": 301.6284, "ARG_OF_PERICENTER": 41.0478, "MEAN_ANOMALY": 28.5622, "EPHEMERIS_TYPE": 0, "CLASSIFICATION_TYPE": "U", "NORAD_CAT_ID": 27436, "ELEMENT_SET_NO": 999, "REV_AT_EPOCH": 18248, "BSTAR": 3.0288e-05, "MEAN_MOTION_DOT": 4.5e-07, "MEAN_MOTION_DDOT": 0}, "tle": {"line1": "1 27436U 02026A   25353.97521560  .00000045  00000+0  30288-4 0  9998", "line2": "2 27436  82.9508 301.6284 0047366  41.0478  28.5622 13.75155401182480"}}, "geometry": {"type": "Point", "coordinates": [-51.82716239131515, 44.228090921671665]}}, {"type": "Feature", "properties": {"norad_id": 27818, "name": "COSMOS 2398", "group": "musson", "lat": -77.60044759418433, "lon": -127.26700115166786, "alt_km": 1022.1881459292663, "timestamp": "2025-12-20T11:30:28.647000+00:00", "meta": {"OBJECT_NAME": "COSMOS 2398", "OBJECT_ID": "2003-023A", "EPOCH": "2025-12-20T03:41:35.541312", "MEAN_MOTION": 13.72386473, "ECCENTRICITY": 0.0032724, "INCLINATION": 82.9484, "RA_OF_ASC_NODE": 267.2349, "ARG_OF_PERICENTER": 92.0261, "MEAN_ANOMALY": 20.4538, "EPHEMERIS_TYPE": 0, "CLASSIFICATION_TYPE": "U", "NORAD_CAT_ID": 27818, "ELEMENT_SET_NO": 999, "REV_AT_EPOCH": 12918, "BSTAR": 5.5883e-05, "MEAN_MOTION_DOT": 6.7e-07, "MEAN_MOTION_DDOT": 0}, "tle": {"line1": "1 27818U 03023A   25354.15388358  .00000067  00000+0  55883-4 0  9999", "line2": "2 27818  82.9484 267.2349 0032724  92.0261  20.4538 13.72386473129181"}}, "geometry": {"type": "Point", "coordinates": [-127.26700115166786, -77.60044759418433]}}, {"type": "Feature", "properties": {"norad_id": 28380, "name": "COSMOS 2407", "group": "musson", "lat": -44.88832425655182, "lon": 34.232640014768066, "alt_km": 1012.5054806985945, "timestamp": "2025-12-20T11:30:28.647011+00:00", "meta": {"OBJECT_NAME": "COSMOS 2407", "OBJECT_ID": "2004-028A", "EPOCH": "2025-12-20T04:01:37.975296", "MEAN_MOTION": 13.76314508, "ECCENTRICITY": 0.0039991, "INCLINATION": 82.9598, "RA_OF_ASC_NODE": 207.3929, "ARG_OF_PERICENTER": 34.5963, "MEAN_ANOMALY": 87.2263, "EPHEMERIS_TYPE": 0, "CLASSIFICATION_TYPE": "U", "NORAD_CAT_ID": 28380, "ELEMENT_SET_NO": 999, "REV_AT_EPOCH": 7525, "BSTAR": 5.6614e-05, "MEAN_MOTION_DOT": 7.1e-07, "MEAN_MOTION_DDOT": 0}, "tle": {"line1": "1 28380U 04028A   25354.16780064  .00000071  00000+0  56614-4 0  9999", "line2": "2 28380  82.9598 207.3929 0039991  34.5963  87.2263 13.76314508 75252"}}, "geometry": {"type": "Point", "coordinates": [34.232640014768066, -44.88832425655182]}}, {"type": "Feature", "properties": {"norad_id": 28521, "name": "COSMOS 2414", "group": "musson", "lat": 82.86566552382985, "lon": -82.62451106158947, "alt_km": 901.6218432456117, "timestamp": "2025-12-20T11:30:28.647022+00:00", "meta": {"OBJECT_NAME": "COSMOS 2414", "OBJECT_ID": "2005-002A", "EPOCH": "2025-12-20T00:41:25.969056", "MEAN_MOTION": 13.87903927, "ECCENTRICITY": 0.0041248, "INCLINATION": 82.9488, "RA_OF_ASC_NODE": 179.148, "ARG_OF_PERICENTER": 119.4004, "MEAN_ANOMALY": 241.1287, "EPHEMERIS_TYPE": 0, "CLASSIFICATION_TYPE": "U", "NORAD_CAT_ID": 28521, "ELEMENT_SET_NO": 999, "REV_AT_EPOCH": 5896, "BSTAR": 4.5926e-05, "MEAN_MOTION_DOT": 7.1e-07, "MEAN_MOTION_DDOT": 0}, "tle": {"line1": "1 28521U 05002A   25354.02877279  .00000071  00000+0  45926-4 0  9993", "line2": "2 28521  82.9488 179.1480 0041248 119.4004 241.1287 13.87903927 58969"}}, "geometry": {"type": "Point", "coordinates": [-82.62451106158947, 82.86566552382985]}}, {"type": "Feature", "properties": {"norad_id": 32052, "name": "COSMOS 2429", "group": "musson", "lat": -49.69626003354088, "lon": 165.95507521118097, "alt_km": 1011.797377047581, "timestamp": "2025-12-20T11:30:28.647033+00:00", "meta": {"OBJECT_NAME": "COSMOS 2429", "OBJECT_ID": "2007-038A", "EPOCH": "2025-12-20T05:09:10.530144", "MEAN_MOTION": 13.75150139, "ECCENTRICITY": 0.0038814, "INCLINATION": 82.9805, "RA_OF_ASC_NODE": 337.7979, "ARG_OF_PERICENTER": 17.3604, "MEAN_ANOMALY": 342.8869, "EPHEMERIS_TYPE": 0, "CLASSIFICATION_TYPE": "U", "NORAD_CAT_ID": 32052, "ELEMENT_SET_NO": 999, "REV_AT_EPOCH": 91705, "BSTAR": 3.7708e-05, "MEAN_MOTION_DOT": 5.2e-07, "MEAN_MOTION_DDOT": 0}, "tle": {"line1": "1 32052U 07038A   25354.21470521  .00000052  00000+0  37708-4 0  9996", "line2": "2 32052  82.9805 337.7979 0038814  17.3604 342.8869 13.75150139917053"}}, "geometry": {"type": "Point", "coordinates": [165.95507521118097, -49.69626003354088]}}, {"type": "Feature", "properties": {"norad_id": 35635, "name": "COSMOS 2454", "group": "musson", "lat": -17.944424494918533, "lon": -14.927392164747866, "alt_km": 945.9301130835802, "timestamp": "2025-12-20T11:30:28.647043+00:00", "meta": {"OBJECT_NAME": "COSMOS 2454", "OBJECT_ID": "2009-039A", "EPOCH": "2025-12-20T00:46:45.983424", "MEAN_MOTION": 13.89929547, "ECCENTRICITY": 0.0020238, "INCLINATION": 82.9556, "RA_OF_ASC_NODE": 163.1166, "ARG_OF_PERICENTER": 54.2109, "MEAN_ANOMALY": 68.1245, "EPHEMERIS_TYPE": 0, "CLASSIFICATION_TYPE": "U", "NORAD_CAT_ID": 35635, "ELEMENT_SET_NO": 999, "REV_AT_EPOCH": 83251, "BSTAR": 3.6626e-05, "MEAN_MOTION_DOT": 6.1e-07, "MEAN_MOTION_DDOT": 0}, "tle": {"line1": "1 35635U 09039A   25354.03247666  .00000061  00000+0  36626-4 0  9999", "line2": "2 35635  82.9556 163.1166 0020238  54.2109  68.1245 13.89929547832511"}}, "geometry": {"type": "Point", "coordinates": [-14.927392164747866, -17.944424494918533]}}, {"type": "Feature", "properties": {"norad_id": 36519, "name": "COSMOS 2463", "group": "musson", "lat": 82.93024779481836, "lon": 106.08332015531998, "alt_km": 1011.7497179783159, "timestamp": "2025-12-20T11:30:28.647064+00:00", "meta": {"OBJECT_NAME": "COSMOS 2463", "OBJECT_ID": "2010-017A", "EPOCH": "2025-12-20T04:24:02.126016", "MEAN_MOTION": 13.71649756, "ECCENTRICITY": 0.0034738, "INCLINATION": 82.9605, "RA_OF_ASC_NODE": 21.2424, "ARG_OF_PERICENTER": 266.6189, "MEAN_ANOMALY": 161.2989, "EPHEMERIS_TYPE": 0, "CLASSIFICATION_TYPE": "U", "NORAD_CAT_ID": 36519, "ELEMENT_SET_NO": 999, "REV_AT_EPOCH": 78339, "BSTAR": 4.3115e-05, "MEAN_MOTION_DOT": 5.4e-07, "MEAN_MOTION_DDOT": 0}, "tle": {"line1": "1 36519U 10017A   25354.18335794  .00000054  00000+0  43115-4 0  9998", "line2": "2 36519  82.9605  21.2424 0034738 266.6189 161.2989 13.71649756783399"}}, "geometry": {"type": "Point", "coordinates": [106.08332015531998, 82.93024779481836]}}]}